NORAD_CAT_ID,OBJECT_NAME,OBJECT_TYPE,EPOCH,MEAN_MOTION,ECCENTRICITY,INCLINATION,RA_OF_ASC_NODE,ARG_OF_PERICENTER,MEAN_ANOMALY,BSTAR,MEAN_MOTION_DOT,MEAN_MOTION_DDOT,TLE_LINE0,TLE_LINE1,TLE_LINE2,SEMIMAJOR_AXIS,PERIOD,APOGEE,PERIGEE,DECAYED
53010.0,STARLINK-4263,PAYLOAD,2023-10-29 04:16:54,15.0884952,0.0001572,53.2176,6.444,86.4608,273.6564,5.4326e-05,5.77e-06,0.0,0 STARLINK-4263,1 53010U 22076AA  23302.17840895  .00000577  00000-0  54326-4 0  9991,2 53010  53.2176   6.4440 0001572  86.4608 273.6564 15.08849520 73106,6917.851,95.437,540.804,538.629,0.0
53010.0,STARLINK-4263,PAYLOAD,2023-10-29 13:49:12,15.08859519,0.0001679,53.2174,4.6598,102.368,257.75,0.00045873,7.024e-05,0.0,0 STARLINK-4263,1 53010U 22076AA  23302.57584245  .00007024  00000-0  45873-3 0  9999,2 53010  53.2174   4.6598 0001679 102.3680 257.7500 15.08859519 72699,6917.821,95.436,540.847,538.524,0.0
53010.0,STARLINK-4263,PAYLOAD,2023-10-29 21:46:09,15.08840247,0.0001475,53.2165,3.1758,89.0033,271.1128,0.00013388,1.843e-05,0.0,0 STARLINK-4263,1 53010U 22076AA  23302.90705093  .00001843  00000-0  13388-3 0  9991,2 53010  53.2165   3.1758 0001475  89.0033 271.1128 15.08840247 72748,6917.88,95.438,540.765,538.724,0.0
53010.0,STARLINK-4263,PAYLOAD,2023-10-30 04:07:42,15.0883683,0.000208,53.2165,1.9852,91.7388,268.3842,0.00017112,2.436e-05,0.0,0 STARLINK-4263,1 53010U 22076AA  23303.17201665  .00002436  00000-0  17112-3 0  9995,2 53010  53.2165   1.9852 0002080  91.7388 268.3842 15.08836830 73256,6917.89,95.438,541.194,538.316,0.0
53010.0,STARLINK-4263,PAYLOAD,2023-10-30 13:40:01,15.08834605,0.0001738,53.2172,0.199,107.3482,252.77,4.7422e-05,4.67e-06,0.0,0 STARLINK-4263,1 53010U 22076AA  23303.56945647  .00000467  00000-0  47422-4 0  9993,2 53010  53.2172   0.1990 0001738 107.3482 252.7700 15.08834605 72848,6917.897,95.438,540.964,538.56,0.0
53010.0,STARLINK-4263,PAYLOAD,2023-10-31 08:44:39,15.08832577,0.0001671,53.2164,356.6305,104.8667,255.2511,3.32e-05,2.4e-06,0.0,0 STARLINK-4263,1 53010U 22076AA  23304.36434158  .00000240  00000-0  33200-4 0  9990,2 53010  53.2164 356.6305 0001671 104.8667 255.2511 15.08832577 73431,6917.903,95.438,540.924,538.612,0.0
53010.0,STARLINK-4263,PAYLOAD,2023-11-01 10:10:48,15.08883005,0.0001889,53.2168,351.8735,105.4027,254.7174,0.0010827,0.00017005,0.0,0 STARLINK-4263,1 53010U 22076AA  23305.42416693  .00017005  00000-0  10827-2 0  9997,2 53010  53.2168 351.8735 0001889 105.4027 254.7174 15.08883005 73595,6917.749,95.435,540.921,538.307,0.0
53010.0,STARLINK-4263,PAYLOAD,2023-11-01 19:43:07,15.08845498,0.000141,53.2171,350.0872,93.1834,266.9319,0.00024577,3.626e-05,0.0,0 STARLINK-4263,1 53010U 22076AA  23305.82161910  .00003626  00000-0  24577-3 0  9992,2 53010  53.2171 350.0872 0001410  93.1834 266.9319 15.08845498 73658,6917.864,95.437,540.704,538.753,0.0
53010.0,STARLINK-4263,PAYLOAD,2023-11-02 10:01:35,15.08851224,0.0001642,53.2176,347.416,106.4314,253.6859,0.0002469,3.645e-05,0.0,0 STARLINK-4263,1 53010U 22076AA  23306.41777706  .00003645  00000-0  24690-3 0  9991,2 53010  53.2176 347.4160 0001642 106.4314 253.6859 15.08851224 73275,6917.846,95.437,540.847,538.575,0.0
53010.0,STARLINK-4263,PAYLOAD,2023-11-02 19:33:54,15.08852621,0.0001154,53.2165,345.6273,90.0989,270.0135,0.00026368,3.913e-05,0.0,0 STARLINK-4263,1 53010U 22076AA  23306.81521363  .00003913  00000-0  26368-3 0  9993,2 53010  53.2165 345.6273 0001154  90.0989 270.0135 15.08852621 73331,6917.842,95.437,540.505,538.908,0.0
53010.0,STARLINK-4263,PAYLOAD,2023-11-03 03:30:50,15.08832621,0.0001311,53.2167,344.1404,86.3569,273.7573,-0.00020127,-3.489e-05,0.0,0 STARLINK-4263,1 53010U 22076AA  23307.14642038 -.00003489  00000-0 -20127-3 0  9990,2 53010  53.2167 344.1404 0001311  86.3569 273.7573 15.08832621 73851,6917.903,95.438,540.675,538.861,0.0
53010.0,STARLINK-4263,PAYLOAD,2023-11-03 09:52:23,15.08841407,0.0001723,53.2177,342.9547,98.4462,261.6726,0.00013884,1.922e-05,0.0,0 STARLINK-4263,1 53010U 22076AA  23307.41137937  .00001922  00000-0  13884-3 0  9997,2 53010  53.2177 342.9547 0001723  98.4462 261.6726 15.08841407 73891,6917.876,95.437,540.933,538.549,0.0
53010.0,STARLINK-4263,PAYLOAD,2023-11-03 19:24:42,15.08841053,0.0001533,53.2162,341.1683,94.2408,265.8759,0.0001997,2.892e-05,0.0,0 STARLINK-4263,1 53010U 22076AA  23307.80882053  .00002892  00000-0  19970-3 0  9995,2 53010  53.2162 341.1683 0001533  94.2408 265.8759 15.08841053 73484,6917.877,95.437,540.803,538.682,0.0
53010.0,STARLINK-4263,PAYLOAD,2023-11-04 11:18:33,15.08843652,0.0001462,53.2159,338.1955,90.9265,269.1895,0.00037357,5.663e-05,0.0,0 STARLINK-4263,1 53010U 22076AA  23308.47122190  .00005663  00000-0  37357-3 0  9996,2 53010  53.2159 338.1955 0001462  90.9265 269.1895 15.08843652 73589,6917.869,95.437,540.746,538.723,0.0
53010.0,STARLINK-4263,PAYLOAD,2023-11-04 19:15:29,15.08841189,0.0001588,53.2173,336.7073,83.7986,276.3187,0.00025879,3.833e-05,0.0,0 STARLINK-4263,1 53010U 22076AA  23308.80242401  .00003833  00000-0  25879-3 0  9994,2 53010  53.2173 336.7073 0001588  83.7986 276.3187 15.08841189 74105,6917.877,95.437,540.84,538.643,0.0
53010.0,STARLINK-4263,PAYLOAD,2023-11-05 09:33:57,15.08854172,0.0001524,53.2161,334.0321,84.0565,276.0601,0.00050201,7.714e-05,0.0,0 STARLINK-4263,1 53010U 22076AA  23309.39858064  .00007714  00000-0  50201-3 0  9996,2 53010  53.2161 334.0321 0001524  84.0565 276.0601 15.08854172 73727,6917.837,95.437,540.756,538.648,0.0
53010.0,STARLINK-4263,PAYLOAD,2023-11-05 19:06:16,15.08847269,0.0001485,53.2164,332.2481,90.2997,269.8165,0.00029066,4.342e-05,0.0,0 STARLINK-4263,1 53010U 22076AA  23309.79602104  .00004342  00000-0  29066-3 0  9991,2 53010  53.2164 332.2481 0001485  90.2997 269.8165 15.08847269 73781,6917.858,95.437,540.75,538.696,0.0
53010.0,STARLINK-4263,PAYLOAD,2023-11-06 01:27:48,15.08854419,0.0001492,53.2173,331.0562,98.6248,261.4913,0.00045729,7e-05,0.0,0 STARLINK-4263,1 53010U 22076AA  23310.06097856  .00007000  00000-0  45729-3 0  9993,2 53010  53.2173 331.0562 0001492  98.6248 261.4913 15.08854419 74298,6917.836,95.437,540.733,538.669,0.0
53010.0,STARLINK-4263,PAYLOAD,2023-11-06 07:49:20,15.08878801,0.0001587,53.2166,329.8692,95.8508,264.2665,0.0012236,0.0001926,0.0,0 STARLINK-4263,1 53010U 22076AA  23310.32593142  .00019260  00000-0  12236-2 0  9998,2 53010  53.2166 329.8692 0001587  95.8508 264.2665 15.08878801 74333,6917.762,95.435,540.725,538.529,0.0
53010.0,STARLINK-4263,PAYLOAD,2023-11-06 18:57:03,15.08833529,0.0001745,53.2165,327.7874,90.5316,269.5876,-8.9178e-05,-1.707e-05,0.0,0 STARLINK-4263,1 53010U 22076AA  23310.78962162 -.00001707  00000-0 -89178-4 0  9990,2 53010  53.2165 327.7874 0001745  90.5316 269.5876 15.08833529 74404,6917.9,95.438,540.972,538.558,0.0
53010.0,STARLINK-4263,PAYLOAD,2023-11-07 01:18:36,15.08816441,0.0002654,53.2166,326.598,90.0783,270.0513,-0.00042839,-7.096e-05,0.0,0 STARLINK-4263,1 53010U 22076AA  23311.05459191 -.00007096  00000-0 -42839-3 0  9993,2 53010  53.2166 326.5980 0002654  90.0783 270.0513 15.08816441 74446,6917.952,95.439,541.653,537.981,0.0
53010.0,STARLINK-4263,PAYLOAD,2023-11-07 10:50:57,15.08783057,0.0001041,53.217,324.8137,102.1091,258.0017,0.0017262,0.00027248,0.0,0 STARLINK-4263,1 53010U 22076AA  23311.45204960  .00027248  00000-0  17262-2 0  9999,2 53010  53.2170 324.8137 0001041 102.1091 258.0017 15.08783057 74500,6918.054,95.441,540.64,539.199,0.0
53010.0,STARLINK-4263,PAYLOAD,2023-11-08 01:09:25,15.08841121,6.41e-05,53.2168,322.1373,96.7235,263.383,0.0019656,0.00031134,0.0,0 STARLINK-4263,1 53010U 22076AA  23312.04821280  .00031134  00000-0  19656-2 0  9993,2 53010  53.2168 322.1373 0000641  96.7235 263.3830 15.08841121 74591,6917.877,95.437,540.185,539.299,0.0
53010.0,STARLINK-4263,PAYLOAD,2023-11-08 10:41:43,15.08891812,7.95e-05,53.2171,320.3547,89.9547,270.1537,0.0028249,0.00045022,0.0,0 STARLINK-4263,1 53010U 22076AA  23312.44564315  .00045022  00000-0  28249-2 0  9999,2 53010  53.2171 320.3547 0000795  89.9547 270.1537 15.08891812 74657,6917.722,95.434,540.137,539.037,0.0
53010.0,STARLINK-4263,PAYLOAD,2023-11-09 04:10:57,15.08870946,0.0001057,53.2177,317.0817,111.4532,248.6573,0.0010766,0.00016902,0.0,0 STARLINK-4263,1 53010U 22076AA  23313.17427442  .00016902  00000-0  10766-2 0  9999,2 53010  53.2177 317.0817 0001057 111.4532 248.6573 15.08870946 74760,6917.786,95.436,540.382,538.92,0.0
53010.0,STARLINK-4263,PAYLOAD,2023-11-09 05:46:20,15.08869779,0.0001307,53.2165,316.7801,122.346,237.7659,0.00082092,0.00012812,0.0,0 STARLINK-4263,1 53010U 22076AA  23313.24051247  .00012812  00000-0  82092-3 0  9991,2 53010  53.2165 316.7801 0001307 122.3460 237.7659 15.08869779 74301,6917.789,95.436,540.559,538.75,0.0
53010.0,STARLINK-4263,PAYLOAD,2023-11-10 04:01:44,15.08815455,0.0001239,53.2167,312.6185,84.1385,275.9748,-0.00078228,-0.00012708,0.0,0 STARLINK-4263,1 53010U 22076AA  23314.16788090 -.00012708  00000-0 -78228-3 0  9998,2 53010  53.2167 312.6185 0001239  84.1385 275.9748 15.08815455 74910,6917.955,95.439,540.678,538.963,0.0
53010.0,STARLINK-4263,PAYLOAD,2023-11-10 08:47:56,15.08777498,0.0001339,53.216,311.7262,86.0321,274.0824,-0.0013018,-0.00020911,0.0,0 STARLINK-4263,1 53010U 22076AA  23314.36662577 -.00020911  00000-0 -13018-2 0  9991,2 53010  53.2160 311.7262 0001339  86.0321 274.0824 15.08777498 74943,6918.071,95.442,540.863,539.01,0.0
53010.0,STARLINK-4263,PAYLOAD,2023-11-10 16:44:49,15.088484,3.23e-05,53.2165,310.2418,138.3719,221.7298,3.4997e-06,-2.32e-06,0.0,0 STARLINK-4263,1 53010U 22076AA  23314.69779692 -.00000232  00000-0  34997-5 0  9999,2 53010  53.2165 310.2418 0000323 138.3719 221.7298 15.08848400 74990,6917.855,95.437,539.943,539.496,0.0
53010.0,STARLINK-4263,PAYLOAD,2023-11-11 08:38:40,15.08860702,0.0001402,53.2162,307.2667,86.9426,273.1726,0.0005589,8.623e-05,0.0,0 STARLINK-4263,1 53010U 22076AA  23315.36019626  .00008623  00000-0  55890-3 0  9992,2 53010  53.2162 307.2667 0001402  86.9426 273.1726 15.08860702 74627,6917.817,95.436,540.652,538.712,0.0
